H1 CPF 01  gfz 2022 03 24 01  5831 tandemx   
H2 1003001  6202 36605    2022 03 24 00 59 42 2022 03 29 00 00 42   120 1 1  0 0 0
H9
10 0 59664  46062.000000  0   -1122293.406  -6582605.492   1686659.388
10 0 59664  46182.000000  0   -1328460.524  -6712121.722    797251.240
10 0 59664  46302.000000  0   -1512615.357  -6720894.247   -106193.555
10 0 59664  46422.000000  0   -1669440.679  -6609252.921  -1007771.425
10 0 59664  46542.000000  0   -1794129.862  -6379740.504  -1891628.846
10 0 59664  46662.000000  0   -1882508.771  -6037051.814  -2742248.630
10 0 59664  46782.000000  0   -1931144.366  -5587930.376  -3544728.424
10 0 59664  46902.000000  0   -1937436.786  -5041024.724  -4285044.759
10 0 59664  47022.000000  0   -1899692.643  -4406709.678  -4950296.279
10 0 59664  47142.000000  0   -1817178.639  -3696878.823  -5528922.606
10 0 59664  47262.000000  0   -1690154.732  -2924713.278  -6010896.843
10 0 59664  47382.000000  0   -1519886.143  -2104430.974  -6387889.546
10 0 59664  47502.000000  0   -1308634.161  -1251021.714  -6653400.930
10 0 59664  47622.000000  0   -1059627.097   -379974.470  -6802861.543
10 0 59664  47742.000000  0    -777011.689    492999.441  -6833701.996
10 0 59664  47862.000000  0    -465784.507   1352242.684  -6745391.712
10 0 59664  47982.000000  0    -131705.927   2182425.196  -6539446.825
10 0 59664  48102.000000  0     218802.367   2968810.788  -6219408.203
10 0 59664  48222.000000  0     578777.376   3697515.627  -5790788.634
10 0 59664  48342.000000  0     940848.908   4355752.234  -5260986.483
10 0 59664  48462.000000  0    1297385.255   4932055.930  -4639169.802
10 0 59664  48582.000000  0    1640649.505   5416491.549  -3936129.128
10 0 59664  48702.000000  0    1962962.994   5800833.619  -3164099.219
10 0 59664  48822.000000  0    2256872.226   6078716.864  -2336553.554
10 0 59664  48942.000000  0    2515316.231   6245753.894  -1467972.888
10 0 59664  49062.000000  0    2731789.861   6299615.372   -573590.802
10 0 59664  49182.000000  0    2900498.505   6240068.911    330878.301
10 0 59664  49302.000000  0    3016500.151   6068975.656   1229521.877
10 0 59664  49422.000000  0    3075831.262   5790245.661   2106516.870
10 0 59664  49542.000000  0    3075613.092   5409752.146   2946416.798
10 0 59664  49662.000000  0    3014136.034   4935206.270   3734431.751
10 0 59664  49782.000000  0    2890920.203   4375996.403   4456694.906
10 0 59664  49902.000000  0    2706748.334   3742994.945   5100512.000
10 0 59664  50022.000000  0    2463670.596   3048336.889   5654583.360
10 0 59664  50142.000000  0    2164985.742   2305180.544   6109197.365
10 0 59664  50262.000000  0    1815197.039   1527453.451   6456396.824
10 0 59664  50382.000000  0    1419942.370    729586.381   6690112.671
10 0 59664  50502.000000  0     985901.346    -73755.942   6806262.697
10 0 59664  50622.000000  0     520681.855   -867943.011   6802819.169
10 0 59664  50742.000000  0      32686.380  -1638645.446   6679843.150
10 0 59664  50862.000000  0    -469040.021  -2372093.488   6439483.074
10 0 59664  50982.000000  0    -974977.149  -3055323.617   6085938.585
10 0 59664  51102.000000  0   -1475307.950  -3676408.163   5625389.813
10 0 59664  51222.000000  0   -1960106.831  -4224665.662   5065896.480
10 0 59664  51342.000000  0   -2419537.227  -4690850.410   4417264.972
10 0 59664  51462.000000  0   -2844053.589  -5067316.462   3690881.884
10 0 59664  51582.000000  0   -3224601.454  -5348150.950   2899515.491
10 0 59664  51702.000000  0   -3552810.525  -5529272.591   2057090.357
10 0 59664  51822.000000  0   -3821177.727  -5608495.011   1178439.683
10 0 59664  51942.000000  0   -4023235.948  -5585552.355    279038.514
10 0 59664  52062.000000  0   -4153703.586  -5462086.098   -625276.236
10 0 59664  52182.000000  0   -4208611.138  -5241593.443  -1518593.839
10 0 59664  52302.000000  0   -4185400.778  -4929337.252  -2385219.075
10 0 59664  52422.000000  0   -4082996.639  -4532220.479  -3209955.201
10 0 59664  52542.000000  0   -3901844.196  -4058629.511  -3978374.192
10 0 59664  52662.000000  0   -3643918.739  -3518251.504  -4677068.843
10 0 59664  52782.000000  0   -3312703.740  -2921870.530  -5293883.020
10 0 59664  52902.000000  0   -2913139.737  -2281147.044  -5818115.844
10 0 59664  53022.000000  0   -2451546.077  -1608386.895  -6240697.509
10 0 59664  53142.000000  0   -1935516.546   -916303.739  -6554335.784
10 0 59664  53262.000000  0   -1373791.150   -217779.769  -6753629.844
10 0 59664  53382.000000  0    -776108.394    474369.827  -6835151.860
10 0 59664  53502.000000  0    -153039.511   1147625.691  -6797499.617
10 0 59664  53622.000000  0     484193.848   1789984.749  -6641317.655
10 0 59664  53742.000000  0    1123915.712   2390168.665  -6369289.514
10 0 59664  53862.000000  0    1754205.855   2937819.116  -5986097.274
10 0 59664  53982.000000  0    2363117.374   3423675.900  -5498349.060
10 0 59664  54102.000000  0    2938900.161   3839734.241  -4914475.362
10 0 59664  54222.000000  0    3470226.364   4179380.849  -4244595.448
10 0 59664  54342.000000  0    3946414.837   4437505.559  -3500352.778
10 0 59664  54462.000000  0    4357649.521   4610585.055  -2694720.763
10 0 59664  54582.000000  0    4695185.706   4696735.737  -1841780.747
10 0 59664  54702.000000  0    4951540.108   4695735.244   -956477.877
10 0 59664  54822.000000  0    5120659.728   4609010.178    -54355.827
10 0 59664  54942.000000  0    5198062.307   4439590.351    848721.711
10 0 59664  55062.000000  0    5180947.620   4192031.487   1736856.650
10 0 59664  55182.000000  0    5068277.045   3872306.718   2594405.204
10 0 59664  55302.000000  0    4860815.935   3487668.467   3406263.174
10 0 59664  55422.000000  0    4561137.946   3046485.694   4158139.115
10 0 59664  55542.000000  0    4173593.227   2558060.534   4836809.809
10 0 59664  55662.000000  0    3704242.304   2032430.245   5430354.354
10 0 59664  55782.000000  0    3160753.188   1480158.388   5928362.871
10 0 59664  55902.000000  0    2552269.397    912119.488   6322114.013
10 0 59664  56022.000000  0    1889250.820    339283.200   6604720.365
10 0 59664  56142.000000  0    1183290.962   -227496.282   6771243.195
10 0 59664  56262.000000  0     446911.932   -777685.423   6818775.550
10 0 59664  56382.000000  0    -306658.984  -1301267.290   6746489.191
10 0 59664  56502.000000  0   -1063726.936  -1788923.537   6555647.521
10 0 59664  56622.000000  0   -1810377.613  -2232200.334   6249583.361
10 0 59664  56742.000000  0   -2532730.577  -2623654.374   5833644.088
10 0 59664  56862.000000  0   -3217197.391  -2956979.857   5315106.687
10 0 59664  56982.000000  0   -3850742.310  -3227113.895   4703056.800
10 0 59664  57102.000000  0   -4421135.208  -3430315.723   4008233.010
10 0 59664  57222.000000  0   -4917192.804  -3564219.196   3242841.758
10 0 59664  57342.000000  0   -5329003.969  -3627857.742   2420345.127
10 0 59664  57462.000000  0   -5648135.028  -3621661.770   1555223.039
10 0 59664  57582.000000  0   -5867807.685  -3547426.601    662712.912
10 0 59664  57702.000000  0   -5983045.163  -3408251.352   -241465.802
10 0 59664  57822.000000  0   -5990783.360  -3208451.439  -1141397.071
10 0 59664  57942.000000  0   -5889943.004  -2953445.741  -2021258.729
10 0 59664  58062.000000  0   -5681459.820  -2649621.346  -2865608.550
10 0 59664  58182.000000  0   -5368275.046  -2304181.141  -3659659.894
10 0 59664  58302.000000  0   -4955286.128  -1924977.582  -4389542.261
10 0 59664  58422.000000  0   -4449260.220  -1520337.312  -5042541.348
10 0 59664  58542.000000  0   -3858712.680  -1098880.707  -5607315.426
10 0 59664  58662.000000  0   -3193753.578   -669340.235  -6074083.396
10 0 59664  58782.000000  0   -2465907.299   -240382.322  -6434782.845
10 0 59664  58902.000000  0   -1687908.644    179563.723  -6683197.653
10 0 59664  59022.000000  0    -873479.121    582466.263  -6815053.458
10 0 59664  59142.000000  0     -37088.940    960840.259  -6828082.838
10 0 59664  59262.000000  0     806293.490   1307882.415  -6722059.380
10 0 59664  59382.000000  0    1641462.256   1617589.719  -6498803.688
10 0 59664  59502.000000  0    2453242.864   1884862.325  -6162156.067
10 0 59664  59622.000000  0    3226763.445   2105586.976  -5717917.213
10 0 59664  59742.000000  0    3947723.744   2276700.098  -5173757.371
10 0 59664  59862.000000  0    4602659.673   2396230.564  -4539096.308
10 0 59664  59982.000000  0    5179199.465   2463320.839  -3824951.094
10 0 59664  60102.000000  0    5666303.863   2478225.327  -3043753.759
10 0 59664  60222.000000  0    6054486.646   2442286.082  -2209142.686
10 0 59664  60342.000000  0    6336010.999   2357885.974  -1335727.013
10 0 59664  60462.000000  0    6505053.112   2228379.299   -438829.676
10 0 59664  60582.000000  0    6557831.207   2058001.555    465786.350
10 0 59664  60702.000000  0    6492692.144   1851759.556   1362202.486
10 0 59664  60822.000000  0    6310158.469   1615306.822   2234631.374
10 0 59664  60942.000000  0    6012931.357   1354804.910   3067705.253
10 0 59664  61062.000000  0    5605848.150   1076775.144   3846754.402
10 0 59664  61182.000000  0    5095796.743    787944.883   4558071.597
10 0 59664  61302.000000  0    4491590.215    495092.619   5189154.801
10 0 59664  61422.000000  0    3803805.465    204895.186   5728927.430
10 0 59664  61542.000000  0    3044587.302    -76219.859   6167929.685
10 0 59664  61662.000000  0    2227426.218   -342211.313   6498477.701
10 0 59664  61782.000000  0    1366914.321   -587550.114   6714792.612
10 0 59664  61902.000000  0     478481.149   -807331.864   6813097.218
10 0 59664  62022.000000  0    -421885.154   -997373.247   6791676.904
10 0 59664  62142.000000  0   -1317925.093  -1154291.174   6650906.774
10 0 59664  62262.000000  0   -2193400.298  -1275563.093   6393244.566
10 0 59664  62382.000000  0   -3032385.810  -1359566.919   6023190.065
10 0 59664  62502.000000  0   -3819560.338  -1405601.073   5547213.756
99
